CTC1_L_00573001-01
1 22021U 26242FN  26070.40840278  .00000000  00000+0  00000-0 0  9990
2 22021  87.0000   0.0000 0000000   0.0000   0.0000 13.96770464    12
CTC1_L_00573002-01
1 22022U 25908XQ  26070.40840278  .00000000  00000+0  00000-0 0  9999
2 22022  87.0000   7.5000 0000000   0.0000  30.0000 13.96770464    18
CTC1_L_00573003-01
1 22023U 23111RP  26070.40840278  .00000000  00000+0  00000-0 0  9994
2 22023  87.0000  15.0000 0000000   0.0000  60.0000 13.96770464    16
CTC1_L_00573004-01
1 22024U 24158WU  26070.40840278  .00000000  00000+0  00000-0 0  9997
2 22024  87.0000  22.5000 0000000   0.0000  90.0000 13.96770464    13
CTC1_L_00573005-01
1 22025U 24750PW  26070.40840278  .00000000  00000+0  00000-0 0  9996
2 22025  87.0000  30.0000 0000000   0.0000 120.0000 13.96770464    12
CTC1_L_00573006-01
1 22026U 22564SH  26070.40840278  .00000000  00000+0  00000-0 0  9998
2 22026  87.0000  37.5000 0000000   0.0000 150.0000 13.96770464    18
CTC1_L_00573007-01
1 22027U 23483DC  26070.40840278  .00000000  00000+0  00000-0 0  9990
2 22027  87.0000  45.0000 0000000   0.0000 180.0000 13.96770464    16
CTC1_L_00573008-01
1 22028U 24200GP  26070.40840278  .00000000  00000+0  00000-0 0  9999
2 22028  87.0000  52.5000 0000000   0.0000 210.0000 13.96770464    14
CTC1_L_00573009-01
1 22029U 25604WB  26070.40840278  .00000000  00000+0  00000-0 0  9999
2 22029  87.0000  60.0000 0000000   0.0000 240.0000 13.96770464    12
CTC1_L_00573010-01
1 22030U 23638VD  26070.40840278  .00000000  00000+0  00000-0 0  9996
2 22030  87.0000  67.5000 0000000   0.0000 270.0000 13.96770464    19
CTC1_L_00573011-01
1 22031U 25486QH  26070.40840278  .00000000  00000+0  00000-0 0  9990
2 22031  87.0000  75.0000 0000000   0.0000 300.0000 13.96770464    18
CTC1_L_00573012-01
1 22032U 26330UA  26070.40840278  .00000000  00000+0  00000-0 0  9990
2 22032  87.0000  82.5000 0000000   0.0000 330.0000 13.96770464    15
CTC1_L_00573013-01
1 22033U 22250RE  26070.40840278  .00000000  00000+0  00000-0 0  9998
2 22033  87.0000  90.0000 0000000   0.0000   0.0000 13.96770464    14
CTC1_L_00573014-01
1 22034U 24514UJ  26070.40840278  .00000000  00000+0  00000-0 0  9994
2 22034  87.0000  97.5000 0000000   0.0000  30.0000 13.96770464    10
CTC1_L_00573015-01
1 22035U 23968VC  26070.40840278  .00000000  00000+0  00000-0 0  9997
2 22035  87.0000 105.0000 0000000   0.0000  60.0000 13.96770464    19
CTC1_L_00573016-01
1 22036U 23398SP  26070.40840278  .00000000  00000+0  00000-0 0  9995
2 22036  87.0000 112.5000 0000000   0.0000  90.0000 13.96770464    16
CTC1_L_00573017-01
1 22037U 26841LT  26070.40840278  .00000000  00000+0  00000-0 0  9992
2 22037  87.0000 120.0000 0000000   0.0000 120.0000 13.96770464    15
CTC1_L_00573018-01
1 22038U 25894AH  26070.40840278  .00000000  00000+0  00000-0 0  9990
2 22038  87.0000 127.5000 0000000   0.0000 150.0000 13.96770464    11
CTC1_L_00573019-01
1 22039U 26379GK  26070.40840278  .00000000  00000+0  00000-0 0  9990
2 22039  87.0000 135.0000 0000000   0.0000 180.0000 13.96770464    19
CTC1_L_00573020-01
1 22040U 23803CD  26070.40840278  .00000000  00000+0  00000-0 0  9991
2 22040  87.0000 142.5000 0000000   0.0000 210.0000 13.96770464    18
CTC1_L_00573021-01
1 22041U 26977MD  26070.40840278  .00000000  00000+0  00000-0 0  9997
2 22041  87.0000 150.0000 0000000   0.0000 240.0000 13.96770464    16
CTC1_L_00573022-01
1 22042U 26990LW  26070.40840278  .00000000  00000+0  00000-0 0  9993
2 22042  87.0000 157.5000 0000000   0.0000 270.0000 13.96770464    12
CTC1_L_00573023-01
1 22043U 25566FR  26070.40840278  .00000000  00000+0  00000-0 0  9992
2 22043  87.0000 165.0000 0000000   0.0000 300.0000 13.96770464    11
CTC1_L_00573024-01
1 22044U 26117VR  26070.40840278  .00000000  00000+0  00000-0 0  9996
2 22044  87.0000 172.5000 0000000   0.0000 330.0000 13.96770464    18
CTC1_L_00573025-01
1 22045U 23662NZ  26070.40840278  .00000000  00000+0  00000-0 0  9999
2 22045  87.0000 180.0000 0000000   0.0000   0.0000 13.96770464    17
CTC1_L_00573026-01
1 22046U 22446MQ  26070.40840278  .00000000  00000+0  00000-0 0  9999
2 22046  87.0000 187.5000 0000000   0.0000  30.0000 13.96770464    13
CTC1_L_00573027-01
1 22047U 23943BT  26070.40840278  .00000000  00000+0  00000-0 0  9993
2 22047  87.0000 195.0000 0000000   0.0000  60.0000 13.96770464    11
CTC1_L_00573028-01
1 22048U 22478DF  26070.40840278  .00000000  00000+0  00000-0 0  9996
2 22048  87.0000 202.5000 0000000   0.0000  90.0000 13.96770464    19
CTC1_L_00573029-01
1 22049U 23689QA  26070.40840278  .00000000  00000+0  00000-0 0  9992
2 22049  87.0000 210.0000 0000000   0.0000 120.0000 13.96770464    18
CTC1_L_00573030-01
1 22050U 23483SO  26070.40840278  .00000000  00000+0  00000-0 0  9996
2 22050  87.0000 217.5000 0000000   0.0000 150.0000 13.96770464    15
CTC1_L_00573031-01
1 22051U 22496F   26070.40840278  .00000000  00000+0  00000-0 0  9990
2 22051  87.0000 225.0000 0000000   0.0000 180.0000 13.96770464    13
CTC1_L_00573032-01
1 22052U 25657JS  26070.40840278  .00000000  00000+0  00000-0 0  9993
2 22052  87.0000 232.5000 0000000   0.0000 210.0000 13.96770464    11
CTC1_L_00573033-01
1 22053U 22719WR  26070.40840278  .00000000  00000+0  00000-0 0  9990
2 22053  87.0000 240.0000 0000000   0.0000 240.0000 13.96770464    19
CTC1_L_00573034-01
1 22054U 25960UO  26070.40840278  .00000000  00000+0  00000-0 0  9992
2 22054  87.0000 247.5000 0000000   0.0000 270.0000 13.96770464    15
CTC1_L_00573035-01
1 22055U 25321MR  26070.40840278  .00000000  00000+0  00000-0 0  9994
2 22055  87.0000 255.0000 0000000   0.0000 300.0000 13.96770464    14
CTC1_L_00573036-01
1 22056U 23868CL  26070.40840278  .00000000  00000+0  00000-0 0  9999
2 22056  87.0000 262.5000 0000000   0.0000 330.0000 13.96770464    11
CTC1_L_00573037-01
1 22057U 26817AP  26070.40840278  .00000000  00000+0  00000-0 0  9997
2 22057  87.0000 270.0000 0000000   0.0000   0.0000 13.96770464    10
CTC1_L_00573038-01
1 22058U 23587XA  26070.40840278  .00000000  00000+0  00000-0 0  9999
2 22058  87.0000 277.5000 0000000   0.0000  30.0000 13.96770464    16
CTC1_L_00573039-01
1 22059U 23674VC  26070.40840278  .00000000  00000+0  00000-0 0  9997
2 22059  87.0000 285.0000 0000000   0.0000  60.0000 13.96770464    14
CTC1_L_00573040-01
1 22060U 25929NK  26070.40840278  .00000000  00000+0  00000-0 0  9994
2 22060  87.0000 292.5000 0000000   0.0000  90.0000 13.96770464    12
CTC1_L_00573041-01
1 22061U 26025JE  26070.40840278  .00000000  00000+0  00000-0 0  9993
2 22061  87.0000 300.0000 0000000   0.0000 120.0000 13.96770464    12
CTC1_L_00573042-01
1 22062U 24407ZP  26070.40840278  .00000000  00000+0  00000-0 0  9996
2 22062  87.0000 307.5000 0000000   0.0000 150.0000 13.96770464    18
CTC1_L_00573043-01
1 22063U 25398RV  26070.40840278  .00000000  00000+0  00000-0 0  9997
2 22063  87.0000 315.0000 0000000   0.0000 180.0000 13.96770464    16
CTC1_L_00573044-01
1 22064U 22611VP  26070.40840278  .00000000  00000+0  00000-0 0  9993
2 22064  87.0000 322.5000 0000000   0.0000 210.0000 13.96770464    14
CTC1_L_00573045-01
1 22065U 26066AT  26070.40840278  .00000000  00000+0  00000-0 0  9992
2 22065  87.0000 330.0000 0000000   0.0000 240.0000 13.96770464    12
CTC1_L_00573046-01
1 22066U 23147DJ  26070.40840278  .00000000  00000+0  00000-0 0  9990
2 22066  87.0000 337.5000 0000000   0.0000 270.0000 13.96770464    18
CTC1_L_00573047-01
1 22067U 24381LV  26070.40840278  .00000000  00000+0  00000-0 0  9992
2 22067  87.0000 345.0000 0000000   0.0000 300.0000 13.96770464    17
CTC1_L_00573048-01
1 22068U 24229OE  26070.40840278  .00000000  00000+0  00000-0 0  9994
2 22068  87.0000 352.5000 0000000   0.0000 330.0000 13.96770464    14
